OBJECT_NAME,OBJECT_ID,EPOCH,MEAN_MOTION,ECCENTRICITY,INCLINATION,RA_OF_ASC_NODE,ARG_OF_PERICENTER,MEAN_ANOMALY,EPHEMERIS_TYPE,CLASSIFICATION_TYPE,NORAD_CAT_ID,ELEMENT_SET_NO,REV_AT_EPOCH,BSTAR,MEAN_MOTION_DOT,MEAN_MOTION_DDOT
STARLINK-3860,2022-049AC,2025-11-05T03:08:31.573536,15.08830804,.00016913,53.2209,248.2907,95.0246,265.0940,0,U,52477,999,19482,-.40841691E-4,-.938E-5,0
STARLINK-3825,2022-049AD,2025-11-05T07:10:56.616096,15.08845993,.00012738,53.2163,257.5333,97.3341,262.7796,0,U,52478,999,19471,.39085056E-3,.5939E-4,0
STARLINK-3878,2022-049AE,2025-11-05T02:47:19.609152,15.08833221,.00013134,53.2162,248.3525,86.1340,273.9802,0,U,52479,999,19482,-.46583224E-4,-.1029E-4,0
STARLINK-3839,2022-049AF,2025-11-05T02:19:34.574016,15.08784325,.00013336,53.2181,258.4456,90.3578,269.7567,0,U,52480,999,19344,-.4787163E-3,-.7887E-4,0
STARLINK-3813,2022-049AH,2025-11-05T02:36:43.194528,15.08839696,.00014069,53.2163,248.3857,92.3545,267.7608,0,U,52482,999,19358,.4624576E-4,.448E-5,0
STARLINK-3875,2022-049AJ,2025-11-05T02:52:37.454880,15.08821925,.00014524,53.2168,248.3383,95.2392,264.8766,0,U,52483,999,19482,.21023221E-3,.3058E-4,0
STARLINK-3887,2022-049AK,2025-11-05T03:49:34.992192,15.08849628,.00013354,53.2177,258.1618,90.3829,269.7316,0,U,52484,999,19345,-.3776298E-3,-.6294E-4,0
STARLINK-3913,2022-049AL,2025-11-05T02:42:01.027296,15.08839532,.00013171,53.2169,248.3666,90.3434,269.7709,0,U,52485,999,19358,.2090972E-4,.45E-6,0
STARLINK-3918,2022-049AM,2025-11-05T03:38:57.282432,15.08858606,.00015276,53.2176,258.1927,92.6071,267.5096,0,U,52486,999,19345,.93493108E-4,.1201E-4,0
STARLINK-3902,2022-049AN,2025-11-05T02:57:56.303712,15.08836005,.00012773,53.2176,248.4236,84.3495,275.7643,0,U,52487,999,19482,-.34137729E-4,-.831E-5,0
STARLINK-3892,2022-049AP,2025-11-05T03:33:41.744448,15.08833845,.00014796,53.2177,258.2079,90.0923,270.0238,0,U,52488,999,19345,-.42353389E-4,-.962E-5,0
STARLINK-3923,2022-049AQ,2025-11-05T03:44:16.626336,15.08842030,.00013809,53.2167,258.1770,86.4890,273.6260,0,U,52489,999,19345,.25088205E-3,.3707E-4,0
STARLINK-3914,2022-049AR,2025-11-05T02:20:49.988256,15.08833271,.0001383,53.2170,248.4375,83.0833,277.0316,0,U,52490,999,19358,-.28200636E-4,-.737E-5,0
STARLINK-3908,2022-049AS,2025-11-05T05:42:11.548224,15.08849828,.00015217,53.2157,247.8082,89.2681,270.8486,0,U,52491,999,19360,.42319752E-3,.6455E-4,0
STARLINK-3916,2022-049AT,2025-11-05T03:45:36.998208,15.08837750,.0001538,53.2163,248.1702,88.3219,271.7950,0,U,52492,999,19359,.31604299E-3,.4745E-4,0
STARLINK-3883,2022-049AU,2025-11-05T02:26:07.821024,15.08833397,.00013945,53.2168,248.4204,86.6279,273.4872,0,U,52493,999,19358,.4040184E-5,-.224E-5,0
STARLINK-3857,2022-049AV,2025-11-05T03:29:42.360288,15.08845762,.00016575,53.2191,248.2239,100.6778,259.4401,0,U,52494,999,19359,-.16639109E-3,-.2936E-4,0
STARLINK-3871,2022-049AX,2025-11-05T02:45:20.563776,15.08832601,.00013809,53.2174,243.3617,93.1223,266.9927,0,U,52496,999,19365,-.9748079E-4,-.1839E-4,0
STARLINK-3884,2022-049AY,2025-11-05T03:40:18.928704,15.08839663,.00014891,53.2178,248.1902,89.0719,271.0443,0,U,52497,999,19359,.49157486E-4,.494E-5,0
STARLINK-3925,2022-049AZ,2025-11-05T03:04:33.242592,15.08831645,.00013468,53.2182,238.3006,78.5326,281.5817,0,U,52498,999,19372,.28912485E-4,.172E-5,0
STARLINK-3894,2022-049BA,2025-11-05T03:35:00.987072,15.08840403,.00014875,53.2177,248.2054,84.9028,275.2134,0,U,52499,999,19359,-.4553412E-5,-.36E-5,0
STARLINK-3866,2022-049BB,2025-11-05T02:59:15.104832,15.08834824,.00013244,53.2175,238.3176,82.9998,277.1145,0,U,52500,999,19372,-.42388431E-4,-.962E-5,0
STARLINK-3907,2022-049BC,2025-11-05T03:03:12.012768,15.08840992,.00015932,53.2170,248.0994,98.8505,261.2667,0,U,52501,999,19359,.41258766E-4,.369E-5,0
STARLINK-3912,2022-049BD,2025-11-05T02:53:56.354496,15.08853702,.00010799,53.2166,238.3623,85.2799,274.8316,0,U,52502,999,19372,.16456469E-3,.2333E-4,0
STARLINK-3861,2022-049BE,2025-11-05T02:38:02.369760,15.08833891,.00015938,53.2183,238.2666,96.9221,263.1952,0,U,52503,999,19372,-.78535883E-4,-.1537E-4,0
STARLINK-3952,2022-051B,2025-11-05T05:58:05.456928,15.08840725,.00015876,53.2192,327.7576,86.1564,273.9610,0,U,52534,999,19339,-.337594E-5,-.342E-5,0
STARLINK-3958,2022-051C,2025-11-05T05:52:45.762240,15.08847741,.00013326,53.2189,327.7736,88.2512,271.8633,0,U,52535,999,19265,.53851685E-3,.8295E-4,0
STARLINK-3964,2022-051D,2025-11-05T05:47:29.430240,15.08839740,.00013714,53.2178,327.7919,89.5186,270.5964,0,U,52536,999,19265,.1144349E-3,.1534E-4,0
STARLINK-3897,2022-051E,2025-11-05T06:51:03.479616,15.08831217,.00012482,53.2183,327.3986,89.0819,271.0316,0,U,52537,999,19266,-.46579084E-4,-.1029E-4,0
STARLINK-3933,2022-051F,2025-11-05T05:31:36.084864,15.08832520,.00014797,53.2191,327.8423,95.8311,264.2849,0,U,52538,999,19265,-.12139071E-4,-.481E-5,0
