STARLINK-3860           
1 52477U 22049AC  25309.13092099 -.00000938  00000+0 -40842-4 0  9997
2 52477  53.2209 248.2907 0001691  95.0246 265.0940 15.08830804194820
STARLINK-3825           
1 52478U 22049AD  25309.29926639  .00005939  00000+0  39085-3 0  9991
2 52478  53.2163 257.5333 0001273  97.3341 262.7796 15.08845993194719
STARLINK-3878           
1 52479U 22049AE  25309.11619918 -.00001029  00000+0 -46583-4 0  9992
2 52479  53.2162 248.3525 0001313  86.1340 273.9802 15.08833221194825
STARLINK-3839           
1 52480U 22049AF  25309.09692794 -.00007887  00000+0 -47872-3 0  9993
2 52480  53.2181 258.4456 0001333  90.3578 269.7567 15.08784325193443
STARLINK-3813           
1 52482U 22049AH  25309.10883327  .00000448  00000+0  46246-4 0  9990
2 52482  53.2163 248.3857 0001406  92.3545 267.7608 15.08839696193586
STARLINK-3875           
1 52483U 22049AJ  25309.11987795  .00003058  00000+0  21023-3 0  9991
2 52483  53.2168 248.3383 0001452  95.2392 264.8766 15.08821925194826
STARLINK-3887           
1 52484U 22049AK  25309.15943278 -.00006294  00000+0 -37763-3 0  9999
2 52484  53.2177 258.1618 0001335  90.3829 269.7316 15.08849628193451
STARLINK-3913           
1 52485U 22049AL  25309.11251189  .00000045  00000+0  20910-4 0  9992
2 52485  53.2169 248.3666 0001317  90.3434 269.7709 15.08839532193582
STARLINK-3918           
1 52486U 22049AM  25309.15205188  .00001201  00000+0  93493-4 0  9996
2 52486  53.2176 258.1927 0001527  92.6071 267.5096 15.08858606193459
STARLINK-3902           
1 52487U 22049AN  25309.12356833 -.00000831  00000+0 -34138-4 0  9999
2 52487  53.2176 248.4236 0001277  84.3495 275.7643 15.08836005194825
STARLINK-3892           
1 52488U 22049AP  25309.14839982 -.00000962  00000+0 -42353-4 0  9996
2 52488  53.2177 258.2079 0001479  90.0923 270.0238 15.08833845193450
STARLINK-3923           
1 52489U 22049AQ  25309.15574799  .00003707  00000+0  25088-3 0  9993
2 52489  53.2167 258.1770 0001380  86.4890 273.6260 15.08842030193450
STARLINK-3914           
1 52490U 22049AR  25309.09780079 -.00000737  00000+0 -28201-4 0  9991
2 52490  53.2170 248.4375 0001383  83.0833 277.0316 15.08833271193583
STARLINK-3908           
1 52491U 22049AS  25309.23763366  .00006455  00000+0  42320-3 0  9996
2 52491  53.2157 247.8082 0001521  89.2681 270.8486 15.08849828193607
STARLINK-3916           
1 52492U 22049AT  25309.15667822  .00004745  00000+0  31604-3 0  9991
2 52492  53.2163 248.1702 0001538  88.3219 271.7950 15.08837750193598
STARLINK-3883           
1 52493U 22049AU  25309.10147941 -.00000224  00000+0  40402-5 0  9999
2 52493  53.2168 248.4204 0001394  86.6279 273.4872 15.08833397193585
STARLINK-3857           
1 52494U 22049AV  25309.14562917 -.00002936  00000+0 -16639-3 0  9994
2 52494  53.2191 248.2239 0001657 100.6778 259.4401 15.08845762193593
STARLINK-3871           
1 52496U 22049AX  25309.11482134 -.00001839  00000+0 -97481-4 0  9991
2 52496  53.2174 243.3617 0001380  93.1223 266.9927 15.08832601193657
STARLINK-3884           
1 52497U 22049AY  25309.15299686  .00000494  00000+0  49157-4 0  9995
2 52497  53.2178 248.1902 0001489  89.0719 271.0443 15.08839663193594
STARLINK-3925           
1 52498U 22049AZ  25309.12816253  .00000172  00000+0  28912-4 0  9997
2 52498  53.2182 238.3006 0001346  78.5326 281.5817 15.08831645193723
STARLINK-3894           
1 52499U 22049BA  25309.14931698 -.00000360  00000+0 -45534-5 0  9992
2 52499  53.2177 248.2054 0001487  84.9028 275.2134 15.08840403193596
STARLINK-3866           
1 52500U 22049BB  25309.12448038 -.00000962  00000+0 -42388-4 0  9995
2 52500  53.2175 238.3176 0001324  82.9998 277.1145 15.08834824193724
STARLINK-3907           
1 52501U 22049BC  25309.12722237  .00000369  00000+0  41259-4 0  9997
2 52501  53.2170 248.0994 0001593  98.8505 261.2667 15.08840992193595
STARLINK-3912           
1 52502U 22049BD  25309.12079114  .00002333  00000+0  16456-3 0  9990
2 52502  53.2166 238.3623 0001079  85.2799 274.8316 15.08853702193725
STARLINK-3861           
1 52503U 22049BE  25309.10974965 -.00001537  00000+0 -78536-4 0  9992
2 52503  53.2183 238.2666 0001593  96.9221 263.1952 15.08833891193725
STARLINK-3952           
1 52534U 22051B   25309.24867427 -.00000342  00000+0 -33759-5 0  9990
2 52534  53.2192 327.7576 0001587  86.1564 273.9610 15.08840725193394
STARLINK-3958           
1 52535U 22051C   25309.24497410  .00008295  00000+0  53852-3 0  9999
2 52535  53.2189 327.7736 0001332  88.2512 271.8633 15.08847741192658
STARLINK-3964           
1 52536U 22051D   25309.24131285  .00001534  00000+0  11443-3 0  9994
2 52536  53.2178 327.7919 0001371  89.5186 270.5964 15.08839740192657
STARLINK-3897           
1 52537U 22051E   25309.28545694 -.00001029  00000+0 -46579-4 0  9992
2 52537  53.2183 327.3986 0001248  89.0819 271.0316 15.08831217192664
STARLINK-3933           
1 52538U 22051F   25309.23027876 -.00000481  00000+0 -12139-4 0  9991
2 52538  53.2191 327.8423 0001479  95.8311 264.2849 15.08832520192655
